start=new Date('2023-03-27T00:00:00.000Z').valueOf();
sats=[{"EPOCH":"2023-03-26T13:07:12.767520","DECAY_DATE":null,"SITE":"AFETR","MEAN_ANOMALY":"272.3630","RCS_SIZE":"LARGE","GP_ID":"228885564","REV_AT_EPOCH":"1512","MEAN_ELEMENT_THEORY":"SGP4","PERIOD":"95.437","EPHEMERIS_TYPE":"0","CENTER_NAME":"EARTH","MEAN_MOTION_DOT":"-0.00007630","OBJECT_ID":"2022-175BE","NORAD_CAT_ID":"54810","FILE":"3871546","PERIAPSIS":"538.686","INCLINATION":"53.2169","CLASSIFICATION_TYPE":"U","TIME_SYSTEM":"UTC","OBJECT_NAME":"STARLINK-5408","TLE_LINE1":"1 54810U 22175BE  23085.54667555 -.00007630  00000-0 -46164-3 0  9998","OBJECT_TYPE":"PAYLOAD","ARG_OF_PERICENTER":"87.7532","APOAPSIS":"540.736","REF_FRAME":"TEME","SEMIMAJOR_AXIS":"6917.846","ECCENTRICITY":"0.00014820","RA_OF_ASC_NODE":"188.7086","BSTAR":"-0.00046164000000","COUNTRY_CODE":"US","MEAN_MOTION_DDOT":"0.0000000000000","LAUNCH_DATE":"2022-12-17","ELEMENT_SET_NO":"999","TLE_LINE2":"2 54810  53.2169 188.7086 0001482  87.7532 272.3630 15.08851314 15129","MEAN_MOTION":"15.08851314"},{"BSTAR":"-0.00005333100000","ECCENTRICITY":"0.00015240","RA_OF_ASC_NODE":"187.3087","SEMIMAJOR_AXIS":"6917.932","REF_FRAME":"TEME","APOAPSIS":"540.851","MEAN_MOTION":"15.08823237","TLE_LINE2":"2 54811  53.2169 187.3087 0001524 112.6886 247.4267 15.08823237 17329","ELEMENT_SET_NO":"999","COUNTRY_CODE":"US","MEAN_MOTION_DDOT":"0.0000000000000","LAUNCH_DATE":"2022-12-17","INCLINATION":"53.2169","FILE":"3871964","PERIAPSIS":"538.742","NORAD_CAT_ID":"54811","OBJECT_TYPE":"PAYLOAD","ARG_OF_PERICENTER":"112.6886","TLE_LINE1":"1 54811U 22175BF  23085.77851840 -.00001136  00000-0 -53331-4 0  9996","OBJECT_NAME":"STARLINK-5424","TIME_SYSTEM":"UTC","CLASSIFICATION_TYPE":"U","EPHEMERIS_TYPE":"0","CENTER_NAME":"EARTH","PERIOD":"95.439","MEAN_ELEMENT_THEORY":"SGP4","OBJECT_ID":"2022-175BF","MEAN_MOTION_DOT":"-0.00001136","RCS_SIZE":"LARGE","SITE":"AFETR","MEAN_ANOMALY":"247.4267","EPOCH":"2023-03-26T18:41:03.989760","DECAY_DATE":null,"REV_AT_EPOCH":"1732","GP_ID":"228920800"},{"RCS_SIZE":"LARGE","MEAN_ANOMALY":"78.4473","SITE":"AFETR","EPOCH":"2023-03-26T19:55:59.142432","DECAY_DATE":null,"REV_AT_EPOCH":"1466","GP_ID":"228922052","EPHEMERIS_TYPE":"0","CENTER_NAME":"EARTH","PERIOD":"95.838","MEAN_ELEMENT_THEORY":"SGP4","OBJECT_ID":"2022-177A","MEAN_MOTION_DOT":"0.00000586","INCLINATION":"43.0026","FILE":"3871964","PERIAPSIS":"558.103","NORAD_CAT_ID":"54820","ARG_OF_PERICENTER":"281.6211","OBJECT_TYPE":"PAYLOAD","TLE_LINE1":"1 54820U 22177A   23085.83054563  .00000586  00000-0  58455-4 0  9990","OBJECT_NAME":"STARLINK-5382","TIME_SYSTEM":"UTC","CLASSIFICATION_TYPE":"U","BSTAR":"0.00005845500000","ECCENTRICITY":"0.00014070","RA_OF_ASC_NODE":"235.8287","SEMIMAJOR_AXIS":"6937.214","REF_FRAME":"TEME","APOAPSIS":"560.055","MEAN_MOTION":"15.02536962","TLE_LINE2":"2 54820  43.0026 235.8287 0001407 281.6211  78.4473 15.02536962 14663","ELEMENT_SET_NO":"999","MEAN_MOTION_DDOT":"0.0000000000000","COUNTRY_CODE":"US","LAUNCH_DATE":"2022-12-28"},{"GP_ID":"228920300","REV_AT_EPOCH":"1466","DECAY_DATE":null,"EPOCH":"2023-03-26T19:52:45.841440","MEAN_ANOMALY":"66.1744","SITE":"AFETR","RCS_SIZE":"LARGE","MEAN_MOTION_DOT":"0.00000639","OBJECT_ID":"2022-177B","MEAN_ELEMENT_THEORY":"SGP4","PERIOD":"95.837","CENTER_NAME":"EARTH","EPHEMERIS_TYPE":"0","CLASSIFICATION_TYPE":"U","TIME_SYSTEM":"UTC","OBJECT_NAME":"STARLINK-5385","TLE_LINE1":"1 54821U 22177B   23085.82830835  .00000639  00000-0  62377-4 0  9991","ARG_OF_PERICENTER":"293.8929","OBJECT_TYPE":"PAYLOAD","NORAD_CAT_ID":"54821","FILE":"3871964","PERIAPSIS":"557.895","INCLINATION":"43.0030","LAUNCH_DATE":"2022-12-28","COUNTRY_CODE":"US","MEAN_MOTION_DDOT":"0.0000000000000","MEAN_MOTION":"15.02557633","TLE_LINE2":"2 54821  43.0030 235.8132 0001615 293.8929  66.1744 15.02557633 14663","ELEMENT_SET_NO":"999","APOAPSIS":"560.135","SEMIMAJOR_AXIS":"6937.150","REF_FRAME":"TEME","RA_OF_ASC_NODE":"235.8132","ECCENTRICITY":"0.00016150","BSTAR":"0.00006237700000"},{"OBJECT_NAME":"STARLINK-5101","TLE_LINE1":"1 54822U 22177C   23085.67983988  .00003639  00000-0  28437-3 0  9994","ARG_OF_PERICENTER":"269.3418","OBJECT_TYPE":"PAYLOAD","TIME_SYSTEM":"UTC","CLASSIFICATION_TYPE":"U","PERIAPSIS":"558.191","FILE":"3871964","INCLINATION":"43.0024","NORAD_CAT_ID":"54822","LAUNCH_DATE":"2022-12-28","COUNTRY_CODE":"US","MEAN_MOTION_DDOT":"0.0000000000000","TLE_LINE2":"2 54822  43.0024 236.4207 0001319 269.3418  90.7274 15.02528036 14643","ELEMENT_SET_NO":"999","MEAN_MOTION":"15.02528036","RA_OF_ASC_NODE":"236.4207","ECCENTRICITY":"0.00013190","BSTAR":"0.00028437000000","APOAPSIS":"560.021","SEMIMAJOR_AXIS":"6937.241","REF_FRAME":"TEME","REV_AT_EPOCH":"1464","GP_ID":"228920550","RCS_SIZE":"LARGE","DECAY_DATE":null,"EPOCH":"2023-03-26T16:18:58.165632","SITE":"AFETR","MEAN_ANOMALY":"90.7274","OBJECT_ID":"2022-177C","MEAN_MOTION_DOT":"0.00003639","CENTER_NAME":"EARTH","EPHEMERIS_TYPE":"0","MEAN_ELEMENT_THEORY":"SGP4","PERIOD":"95.838"},{"MEAN_MOTION_DOT":"0.00027150","OBJECT_ID":"2022-177D","PERIOD":"95.838","MEAN_ELEMENT_THEORY":"SGP4","EPHEMERIS_TYPE":"0","CENTER_NAME":"EARTH","GP_ID":"228921802","REV_AT_EPOCH":"1467","MEAN_ANOMALY":"104.6351","SITE":"AFETR","EPOCH":"2023-03-26T21:25:20.986464","DECAY_DATE":null,"RCS_SIZE":"LARGE","TLE_LINE2":"2 54823  43.0011 235.4331 0001535 255.4321 104.6351 15.02541971 14673","MEAN_MOTION":"15.02541971","ELEMENT_SET_NO":"999","COUNTRY_CODE":"US","MEAN_MOTION_DDOT":"0.0000000000000","LAUNCH_DATE":"2022-12-28","REF_FRAME":"TEME","SEMIMAJOR_AXIS":"6937.198","APOAPSIS":"560.128","BSTAR":"0.00201680000000","ECCENTRICITY":"0.00015350","RA_OF_ASC_NODE":"235.4331","TIME_SYSTEM":"UTC","CLASSIFICATION_TYPE":"U","OBJECT_TYPE":"PAYLOAD","ARG_OF_PERICENTER":"255.4321","OBJECT_NAME":"STARLINK-5106","TLE_LINE1":"1 54823U 22177D   23085.89260401  .00027150  00000-0  20168-2 0  9993","NORAD_CAT_ID":"54823","INCLINATION":"43.0011","FILE":"3871964","PERIAPSIS":"557.998"},{"TLE_LINE2":"2 54824  43.0030 236.4935 0001552 285.5835  74.4836 15.02536103 14649","ELEMENT_SET_NO":"999","MEAN_MOTION":"15.02536103","LAUNCH_DATE":"2022-12-28","MEAN_MOTION_DDOT":"0.0000000000000","COUNTRY_CODE":"US","BSTAR":"-0.00001185700000","RA_OF_ASC_NODE":"236.4935","ECCENTRICITY":"0.00015520","REF_FRAME":"TEME","SEMIMAJOR_AXIS":"6937.216","APOAPSIS":"560.158","OBJECT_TYPE":"PAYLOAD","ARG_OF_PERICENTER":"285.5835","OBJECT_NAME":"STARLINK-4643","TLE_LINE1":"1 54824U 22177E   23085.68982120 -.00000364  00000-0 -11857-4 0  9997","CLASSIFICATION_TYPE":"U","TIME_SYSTEM":"UTC","INCLINATION":"43.0030","FILE":"3871964","PERIAPSIS":"558.005","NORAD_CAT_ID":"54824","OBJECT_ID":"2022-177E","MEAN_MOTION_DOT":"-0.00000364","CENTER_NAME":"EARTH","EPHEMERIS_TYPE":"0","PERIOD":"95.838","MEAN_ELEMENT_THEORY":"SGP4","REV_AT_EPOCH":"1464","GP_ID":"228921552","RCS_SIZE":"LARGE","SITE":"AFETR","MEAN_ANOMALY":"74.4836","DECAY_DATE":null,"EPOCH":"2023-03-26T16:33:20.551680"},{"EPOCH":"2023-03-26T21:12:33.423552","DECAY_DATE":null,"SITE":"AFETR","MEAN_ANOMALY":"80.8773","RCS_SIZE":"LARGE","GP_ID":"228920801","REV_AT_EPOCH":"1467","MEAN_ELEMENT_THEORY":"SGP4","PERIOD":"95.837","EPHEMERIS_TYPE":"0","CENTER_NAME":"EARTH","MEAN_MOTION_DOT":"0.00026801","OBJECT_ID":"2022-177F","NORAD_CAT_ID":"54825","FILE":"3871964","PERIAPSIS":"558.391","INCLINATION":"43.0012","CLASSIFICATION_TYPE":"U","TIME_SYSTEM":"UTC","OBJECT_NAME":"STARLINK-4801","TLE_LINE1":"1 54825U 22177F   23085.88372018  .00026801  00000-0  19911-2 0  9998","OBJECT_TYPE":"PAYLOAD","ARG_OF_PERICENTER":"279.1960","APOAPSIS":"559.727","SEMIMAJOR_AXIS":"6937.194","REF_FRAME":"TEME","ECCENTRICITY":"0.00009630","RA_OF_ASC_NODE":"235.3664","BSTAR":"0.00199110000000","COUNTRY_CODE":"US","MEAN_MOTION_DDOT":"0.0000000000000","LAUNCH_DATE":"2022-12-28","TLE_LINE2":"2 54825  43.0012 235.3664 0000963 279.1960  80.8773 15.02543418 14671","ELEMENT_SET_NO":"999","MEAN_MOTION":"15.02543418"},{"OBJECT_ID":"2022-177G","MEAN_MOTION_DOT":"0.00007005","EPHEMERIS_TYPE":"0","CENTER_NAME":"EARTH","MEAN_ELEMENT_THEORY":"SGP4","PERIOD":"95.838","REV_AT_EPOCH":"1466","GP_ID":"228921051","RCS_SIZE":"LARGE","EPOCH":"2023-03-26T19:33:37.092096","DECAY_DATE":null,"SITE":"AFETR","MEAN_ANOMALY":"80.9755","COUNTRY_CODE":"US","MEAN_MOTION_DDOT":"0.0000000000000","LAUNCH_DATE":"2022-12-28","MEAN_MOTION":"15.02535128","TLE_LINE2":"2 54826  43.0004 235.7107 0001031 279.0970  80.9755 15.02535128 14665","ELEMENT_SET_NO":"999","ECCENTRICITY":"0.00010310","RA_OF_ASC_NODE":"235.7107","BSTAR":"0.00053314000000","APOAPSIS":"559.799","REF_FRAME":"TEME","SEMIMAJOR_AXIS":"6937.219","TLE_LINE1":"1 54826U 22177G   23085.81501264  .00007005  00000-0  53314-3 0  9990","OBJECT_NAME":"STARLINK-5107","ARG_OF_PERICENTER":"279.0970","OBJECT_TYPE":"PAYLOAD","TIME_SYSTEM":"UTC","CLASSIFICATION_TYPE":"U","FILE":"3871964","PERIAPSIS":"558.369","INCLINATION":"43.0004","NORAD_CAT_ID":"54826"},{"OBJECT_TYPE":"PAYLOAD","ARG_OF_PERICENTER":"296.5368","OBJECT_NAME":"STARLINK-5383","TLE_LINE1":"1 54827U 22177H   23085.47486506  .00022579  00000-0  16823-2 0  9990","TIME_SYSTEM":"UTC","CLASSIFICATION_TYPE":"U","INCLINATION":"43.0037","PERIAPSIS":"558.160","FILE":"3871964","NORAD_CAT_ID":"54827","MEAN_MOTION":"15.02510532","TLE_LINE2":"2 54827  43.0037 237.4598 0001442 296.5368  63.5327 15.02510532 14626","ELEMENT_SET_NO":"999","MEAN_MOTION_DDOT":"0.0000000000000","COUNTRY_CODE":"US","LAUNCH_DATE":"2022-12-28","BSTAR":"0.00168230000000","ECCENTRICITY":"0.00014420","RA_OF_ASC_NODE":"237.4598","SEMIMAJOR_AXIS":"6937.295","REF_FRAME":"TEME","APOAPSIS":"560.160","REV_AT_EPOCH":"1462","GP_ID":"228921302","RCS_SIZE":"LARGE","SITE":"AFETR","MEAN_ANOMALY":"63.5327","EPOCH":"2023-03-26T11:23:48.341184","DECAY_DATE":null,"OBJECT_ID":"2022-177H","MEAN_MOTION_DOT":"0.00022579","EPHEMERIS_TYPE":"0","CENTER_NAME":"EARTH","PERIOD":"95.840","MEAN_ELEMENT_THEORY":"SGP4"}];
